CTC1_L_00401016-03
1 10062U 25104SW  26075.70034722  .00000000  00000+0  00000-0 0  9995
2 10062  65.0000 180.0000 0000000   0.0000   0.0000 12.90384021    12
CTC1_L_00401016-04
1 10063U 26579TL  26075.70034722  .00000000  00000+0  00000-0 0  9993
2 10063  65.0000 180.0000 0000000   0.0000  90.0000 12.90384021    12
CTC1_L_00401017-01
1 10064U 26738LJ  26075.70034722  .00000000  00000+0  00000-0 0  9991
2 10064  65.0000 192.0000 0000000   0.0000 192.0000 12.90384021    19
CTC1_L_00401017-02
1 10065U 22968IW  26075.70034722  .00000000  00000+0  00000-0 0  9993
2 10065  65.0000 192.0000 0000000   0.0000 282.0000 12.90384021    10
CTC1_L_00401017-03
1 10066U 22775VX  26075.70034722  .00000000  00000+0  00000-0 0  9990
2 10066  65.0000 192.0000 0000000   0.0000  12.0000 12.90384021    12
CTC1_L_00401017-04
1 10067U 26594OG  26075.70034722  .00000000  00000+0  00000-0 0  9994
2 10067  65.0000 192.0000 0000000   0.0000 102.0000 12.90384021    13
CTC1_L_00401018-01
1 10068U 26159ML  26075.70034722  .00000000  00000+0  00000-0 0  9992
2 10068  65.0000 204.0000 0000000   0.0000 204.0000 12.90384021    11
CTC1_L_00401018-02
1 10069U 22343NA  26075.70034722  .00000000  00000+0  00000-0 0  9994
2 10069  65.0000 204.0000 0000000   0.0000 294.0000 12.90384021    11
CTC1_L_00401018-03
1 10070U 26188AD  26075.70034722  .00000000  00000+0  00000-0 0  9997
2 10070  65.0000 204.0000 0000000   0.0000  24.0000 12.90384021    14
CTC1_L_00401018-04
1 10071U 24536MI  26075.70034722  .00000000  00000+0  00000-0 0  9993
2 10071  65.0000 204.0000 0000000   0.0000 114.0000 12.90384021    15
CTC1_L_00401019-01
1 10072U 22033CD  26075.70034722  .00000000  00000+0  00000-0 0  9994
2 10072  65.0000 216.0000 0000000   0.0000 216.0000 12.90384021    12
CTC1_L_00401019-02
1 10073U 26582LD  26075.70034722  .00000000  00000+0  00000-0 0  9998
2 10073  65.0000 216.0000 0000000   0.0000 306.0000 12.90384021    13
CTC1_L_00401019-03
1 10074U 26715JF  26075.70034722  .00000000  00000+0  00000-0 0  9997
2 10074  65.0000 216.0000 0000000   0.0000  36.0000 12.90384021    14
CTC1_L_00401019-04
1 10075U 25715TP  26075.70034722  .00000000  00000+0  00000-0 0  9997
2 10075  65.0000 216.0000 0000000   0.0000 126.0000 12.90384021    15
CTC1_L_00401020-01
1 10076U 26219VI  26075.70034722  .00000000  00000+0  00000-0 0  9998
2 10076  65.0000 228.0000 0000000   0.0000 228.0000 12.90384021    12
CTC1_L_00401020-02
1 10077U 23672IX  26075.70034722  .00000000  00000+0  00000-0 0  9999
2 10077  65.0000 228.0000 0000000   0.0000 318.0000 12.90384021    13
CTC1_L_00401020-03
1 10078U 25749YP  26075.70034722  .00000000  00000+0  00000-0 0  9997
2 10078  65.0000 228.0000 0000000   0.0000  48.0000 12.90384021    14
CTC1_L_00401020-04
1 10079U 22276UV  26075.70034722  .00000000  00000+0  00000-0 0  9990
2 10079  65.0000 228.0000 0000000   0.0000 138.0000 12.90384021    15
CTC1_L_00401021-01
1 10080U 23315VV  26075.70034722  .00000000  00000+0  00000-0 0  9997
2 10080  65.0000 240.0000 0000000   0.0000 240.0000 12.90384021    15
CTC1_L_00401021-02
1 10081U 25141UC  26075.70034722  .00000000  00000+0  00000-0 0  9997
2 10081  65.0000 240.0000 0000000   0.0000 330.0000 12.90384021    16
CTC1_L_00401021-03
1 10082U 22385VH  26075.70034722  .00000000  00000+0  00000-0 0  9995
2 10082  65.0000 240.0000 0000000   0.0000  60.0000 12.90384021    17
CTC1_L_00401021-04
1 10083U 22760NX  26075.70034722  .00000000  00000+0  00000-0 0  9993
2 10083  65.0000 240.0000 0000000   0.0000 150.0000 12.90384021    18
CTC1_L_00401022-01
1 10084U 25186WY  26075.70034722  .00000000  00000+0  00000-0 0  9999
2 10084  65.0000 252.0000 0000000   0.0000 252.0000 12.90384021    15
CTC1_L_00401022-02
1 10085U 23440DF  26075.70034722  .00000000  00000+0  00000-0 0  9991
2 10085  65.0000 252.0000 0000000   0.0000 342.0000 12.90384021    16
CTC1_L_00401022-03
1 10086U 23718AL  26075.70034722  .00000000  00000+0  00000-0 0  9990
2 10086  65.0000 252.0000 0000000   0.0000  72.0000 12.90384021    17
CTC1_L_00401022-04
1 10087U 25421AP  26075.70034722  .00000000  00000+0  00000-0 0  9994
2 10087  65.0000 252.0000 0000000   0.0000 162.0000 12.90384021    18
CTC1_L_00401023-01
1 10088U 24937NI  26075.70034722  .00000000  00000+0  00000-0 0  9996
2 10088  65.0000 264.0000 0000000   0.0000 264.0000 12.90384021    15
CTC1_L_00401023-02
1 10089U 26284YG  26075.70034722  .00000000  00000+0  00000-0 0  9994
2 10089  65.0000 264.0000 0000000   0.0000 354.0000 12.90384021    16
CTC1_L_00401023-03
1 10090U 26514YY  26075.70034722  .00000000  00000+0  00000-0 0  9992
2 10090  65.0000 264.0000 0000000   0.0000  84.0000 12.90384021    18
CTC1_L_00401023-04
1 10091U 22111HG  26075.70034722  .00000000  00000+0  00000-0 0  9992
2 10091  65.0000 264.0000 0000000   0.0000 174.0000 12.90384021    19
CTC1_L_00401024-01
1 10092U 22500YV  26075.70034722  .00000000  00000+0  00000-0 0  9995
2 10092  65.0000 276.0000 0000000   0.0000 276.0000 12.90384021    16
CTC1_L_00401024-02
1 10093U 24557ZL  26075.70034722  .00000000  00000+0  00000-0 0  9990
2 10093  65.0000 276.0000 0000000   0.0000   6.0000 12.90384021    18
CTC1_L_00401024-03
1 10094U 22809HG  26075.70034722  .00000000  00000+0  00000-0 0  9999
2 10094  65.0000 276.0000 0000000   0.0000  96.0000 12.90384021    18
CTC1_L_00401024-04
1 10095U 22569AY  26075.70034722  .00000000  00000+0  00000-0 0  9993
2 10095  65.0000 276.0000 0000000   0.0000 186.0000 12.90384021    19
CTC1_L_00401025-01
1 10096U 24662ST  26075.70034722  .00000000  00000+0  00000-0 0  9990
2 10096  65.0000 288.0000 0000000   0.0000 288.0000 12.90384021    16
CTC1_L_00401025-02
1 10097U 26884UL  26075.70034722  .00000000  00000+0  00000-0 0  9999
2 10097  65.0000 288.0000 0000000   0.0000  18.0000 12.90384021    18
CTC1_L_00401025-03
1 10098U 23300VN  26075.70034722  .00000000  00000+0  00000-0 0  9990
2 10098  65.0000 288.0000 0000000   0.0000 108.0000 12.90384021    19
CTC1_L_00401025-04
1 10099U 25911UI  26075.70034722  .00000000  00000+0  00000-0 0  9991
2 10099  65.0000 288.0000 0000000   0.0000 198.0000 12.90384021    19
CTC1_L_00401026-01
1 10100U 24421QT  26075.70034722  .00000000  00000+0  00000-0 0  9999
2 10100  65.0000 300.0000 0000000   0.0000 300.0000 12.90384021    12
CTC1_L_00401026-02
1 10101U 24107EE  26075.70034722  .00000000  00000+0  00000-0 0  9991
2 10101  65.0000 300.0000 0000000   0.0000  30.0000 12.90384021    13
CTC1_L_00401026-03
1 10102U 24234AQ  26075.70034722  .00000000  00000+0  00000-0 0  9993
2 10102  65.0000 300.0000 0000000   0.0000 120.0000 12.90384021    14
CTC1_L_00401026-04
1 10103U 22645KJ  26075.70034722  .00000000  00000+0  00000-0 0  9998
2 10103  65.0000 300.0000 0000000   0.0000 210.0000 12.90384021    15
CTC1_L_00401027-01
1 10104U 22975TY  26075.70034722  .00000000  00000+0  00000-0 0  9995
2 10104  65.0000 312.0000 0000000   0.0000 312.0000 12.90384021    12
CTC1_L_00401027-02
1 10105U 26658GU  26075.70034722  .00000000  00000+0  00000-0 0  9998
2 10105  65.0000 312.0000 0000000   0.0000  42.0000 12.90384021    13
CTC1_L_00401027-03
1 10106U 22125WH  26075.70034722  .00000000  00000+0  00000-0 0  9994
2 10106  65.0000 312.0000 0000000   0.0000 132.0000 12.90384021    14
CTC1_L_00401027-04
1 10107U 22487JI  26075.70034722  .00000000  00000+0  00000-0 0  9996
2 10107  65.0000 312.0000 0000000   0.0000 222.0000 12.90384021    15
CTC1_L_00401028-01
1 10108U 23230OL  26075.70034722  .00000000  00000+0  00000-0 0  9994
2 10108  65.0000 324.0000 0000000   0.0000 324.0000 12.90384021    12
CTC1_L_00401028-02
1 10109U 26290NC  26075.70034722  .00000000  00000+0  00000-0 0  9994
2 10109  65.0000 324.0000 0000000   0.0000  54.0000 12.90384021    13
CTC1_L_00401028-03
1 10110U 22851SW  26075.70034722  .00000000  00000+0  00000-0 0  9995
2 10110  65.0000 324.0000 0000000   0.0000 144.0000 12.90384021    15
CTC1_L_00401028-04
1 10111U 24077PV  26075.70034722  .00000000  00000+0  00000-0 0  9998
2 10111  65.0000 324.0000 0000000   0.0000 234.0000 12.90384021    16
CTC1_L_00401029-01
1 10112U 24313JP  26075.70034722  .00000000  00000+0  00000-0 0  9992
2 10112  65.0000 336.0000 0000000   0.0000 336.0000 12.90384021    13
CTC1_L_00401029-02
1 10113U 23448UQ  26075.70034722  .00000000  00000+0  00000-0 0  9991
2 10113  65.0000 336.0000 0000000   0.0000  66.0000 12.90384021    14
CTC1_L_00401029-03
1 10114U 24670MM  26075.70034722  .00000000  00000+0  00000-0 0  9990
2 10114  65.0000 336.0000 0000000   0.0000 156.0000 12.90384021    15
CTC1_L_00401029-04
1 10115U 25805QC  26075.70034722  .00000000  00000+0  00000-0 0  9992
2 10115  65.0000 336.0000 0000000   0.0000 246.0000 12.90384021    16
CTC1_L_00401030-01
1 10116U 24731BK  26075.70034722  .00000000  00000+0  00000-0 0  9990
2 10116  65.0000 348.0000 0000000   0.0000 348.0000 12.90384021    13
CTC1_L_00401030-02
1 10117U 26113HR  26075.70034722  .00000000  00000+0  00000-0 0  9997
2 10117  65.0000 348.0000 0000000   0.0000  78.0000 12.90384021    14
CTC1_L_00401030-03
1 10118U 22182TC  26075.70034722  .00000000  00000+0  00000-0 0  9990
2 10118  65.0000 348.0000 0000000   0.0000 168.0000 12.90384021    15
CTC1_L_00401030-04
1 10119U 22773GG  26075.70034722  .00000000  00000+0  00000-0 0  9997
2 10119  65.0000 348.0000 0000000   0.0000 258.0000 12.90384021    16
